{"fetched_at":"2026-03-29T16:36:15Z","count":15609,"tles":[{"name":"STARLINK-6152","line1":"1 57121U 23090W   26087.61498853 -.00001241  00000+0 -76836-4 0  9990","line2":"2 57121  43.0024 171.5182 0000734 234.7208 125.3566 15.02521901153076","category":"Starlink"}]}